CCSDS_OMM_VERS = 2.0
CREATION_DATE  = 
ORIGINATOR     = 

OBJECT_NAME    = STARLINK-36529
OBJECT_ID      = 2026-008N
CENTER_NAME    = EARTH
REF_FRAME      = TEME
TIME_SYSTEM    = UTC
MEAN_ELEMENT_THEORY = SGP/SGP4

EPOCH          = 2026-02-12T22:00:03.000096
MEAN_MOTION    = 15.41261584
ECCENTRICITY   = .00007947
INCLINATION    = 43.0006
RA_OF_ASC_NODE = 345.5044
ARG_OF_PERICENTER = 271.2832
MEAN_ANOMALY   = 289.6321

EPHEMERIS_TYPE = 0
CLASSIFICATION_TYPE = U
NORAD_CAT_ID   = 67457
ELEMENT_SET_NO = 999
REV_AT_EPOCH   = 581
BSTAR          = -.54845662E-1
MEAN_MOTION_DOT = -.2069816E-1
MEAN_MOTION_DDOT = 0

CCSDS_OMM_VERS = 2.0
CREATION_DATE  = 
ORIGINATOR     = 

OBJECT_NAME    = STARLINK-36528
OBJECT_ID      = 2026-008P
CENTER_NAME    = EARTH
REF_FRAME      = TEME
TIME_SYSTEM    = UTC
MEAN_ELEMENT_THEORY = SGP/SGP4

EPOCH          = 2026-02-12T22:00:03.000096
MEAN_MOTION    = 15.45432065
ECCENTRICITY   = .00013032
INCLINATION    = 43.0003
RA_OF_ASC_NODE = 345.1202
ARG_OF_PERICENTER = 252.5923
MEAN_ANOMALY   = 104.5412

EPHEMERIS_TYPE = 0
CLASSIFICATION_TYPE = U
NORAD_CAT_ID   = 67458
ELEMENT_SET_NO = 999
REV_AT_EPOCH   = 583
BSTAR          = -.46378129E-1
MEAN_MOTION_DOT = -.2024013E-1
MEAN_MOTION_DDOT = 0

CCSDS_OMM_VERS = 2.0
CREATION_DATE  = 
ORIGINATOR     = 

OBJECT_NAME    = STARLINK-36546
OBJECT_ID      = 2026-008Q
CENTER_NAME    = EARTH
REF_FRAME      = TEME
TIME_SYSTEM    = UTC
MEAN_ELEMENT_THEORY = SGP/SGP4

EPOCH          = 2026-02-12T22:00:03.000096
MEAN_MOTION    = 15.36656009
ECCENTRICITY   = .00009174
INCLINATION    = 42.9997
RA_OF_ASC_NODE = 345.5912
ARG_OF_PERICENTER = 268.6151
MEAN_ANOMALY   = 256.2777

EPHEMERIS_TYPE = 0
CLASSIFICATION_TYPE = U
NORAD_CAT_ID   = 67459
ELEMENT_SET_NO = 999
REV_AT_EPOCH   = 581
BSTAR          = -.63677569E-1
MEAN_MOTION_DOT = -.2099609E-1
MEAN_MOTION_DDOT = 0

CCSDS_OMM_VERS = 2.0
CREATION_DATE  = 
ORIGINATOR     = 

OBJECT_NAME    = STARLINK-36523
OBJECT_ID      = 2026-008R
CENTER_NAME    = EARTH
REF_FRAME      = TEME
TIME_SYSTEM    = UTC
MEAN_ELEMENT_THEORY = SGP/SGP4

EPOCH          = 2026-02-12T22:00:03.000096
MEAN_MOTION    = 15.37808399
ECCENTRICITY   = .00007119
INCLINATION    = 43.0004
RA_OF_ASC_NODE = 345.5262
ARG_OF_PERICENTER = 266.8749
MEAN_ANOMALY   = 284.5518

EPHEMERIS_TYPE = 0
CLASSIFICATION_TYPE = U
NORAD_CAT_ID   = 67460
ELEMENT_SET_NO = 999
REV_AT_EPOCH   = 583
BSTAR          = -.61755886E-1
MEAN_MOTION_DOT = -.2112903E-1
MEAN_MOTION_DDOT = 0

CCSDS_OMM_VERS = 2.0
CREATION_DATE  = 
ORIGINATOR     = 

OBJECT_NAME    = STARLINK-36522
OBJECT_ID      = 2026-008S
CENTER_NAME    = EARTH
REF_FRAME      = TEME
TIME_SYSTEM    = UTC
MEAN_ELEMENT_THEORY = SGP/SGP4

EPOCH          = 2026-02-12T21:25:42.967488
MEAN_MOTION    = 15.50688091
ECCENTRICITY   = .00017123
INCLINATION    = 42.9998
RA_OF_ASC_NODE = 345.8098
ARG_OF_PERICENTER = 228.9641
MEAN_ANOMALY   = 131.1071

EPHEMERIS_TYPE = 0
CLASSIFICATION_TYPE = U
NORAD_CAT_ID   = 67461
ELEMENT_SET_NO = 999
REV_AT_EPOCH   = 577
BSTAR          = .20175051E-2
MEAN_MOTION_DOT = .120319E-2
MEAN_MOTION_DDOT = 0

CCSDS_OMM_VERS = 2.0
CREATION_DATE  = 
ORIGINATOR     = 

OBJECT_NAME    = STARLINK-36504
OBJECT_ID      = 2026-008T
CENTER_NAME    = EARTH
REF_FRAME      = TEME
TIME_SYSTEM    = UTC
MEAN_ELEMENT_THEORY = SGP/SGP4

EPOCH          = 2026-02-12T22:00:03.000096
MEAN_MOTION    = 15.39056832
ECCENTRICITY   = .00008544
INCLINATION    = 42.9994
RA_OF_ASC_NODE = 345.3059
ARG_OF_PERICENTER = 246.0526
MEAN_ANOMALY   = 35.0697

EPHEMERIS_TYPE = 0
CLASSIFICATION_TYPE = U
NORAD_CAT_ID   = 67462
ELEMENT_SET_NO = 999
REV_AT_EPOCH   = 583
BSTAR          = -.56635153E-1
MEAN_MOTION_DOT = -.1994881E-1
MEAN_MOTION_DDOT = 0

CCSDS_OMM_VERS = 2.0
CREATION_DATE  = 
ORIGINATOR     = 

OBJECT_NAME    = STARLINK-36505
OBJECT_ID      = 2026-008U
CENTER_NAME    = EARTH
REF_FRAME      = TEME
TIME_SYSTEM    = UTC
MEAN_ELEMENT_THEORY = SGP/SGP4

EPOCH          = 2026-02-12T22:00:03.000096
MEAN_MOTION    = 15.44595135
ECCENTRICITY   = .000091
INCLINATION    = 43.0000
RA_OF_ASC_NODE = 345.3094
ARG_OF_PERICENTER = 251.4237
MEAN_ANOMALY   = 28.6818

EPHEMERIS_TYPE = 0
CLASSIFICATION_TYPE = U
NORAD_CAT_ID   = 67463
ELEMENT_SET_NO = 999
REV_AT_EPOCH   = 581
BSTAR          = -.47918355E-1
MEAN_MOTION_DOT = -.2030608E-1
MEAN_MOTION_DDOT = 0

CCSDS_OMM_VERS = 2.0
CREATION_DATE  = 
ORIGINATOR     = 

OBJECT_NAME    = STARLINK-36421
OBJECT_ID      = 2026-008V
CENTER_NAME    = EARTH
REF_FRAME      = TEME
TIME_SYSTEM    = UTC
MEAN_ELEMENT_THEORY = SGP/SGP4

EPOCH          = 2026-02-12T19:52:05.794176
MEAN_MOTION    = 15.50640454
ECCENTRICITY   = .00007954
INCLINATION    = 42.9957
RA_OF_ASC_NODE = 346.1823
ARG_OF_PERICENTER = 287.8134
MEAN_ANOMALY   = 72.2639

EPHEMERIS_TYPE = 0
CLASSIFICATION_TYPE = U
NORAD_CAT_ID   = 67464
ELEMENT_SET_NO = 999
REV_AT_EPOCH   = 576
BSTAR          = .14134789E-2
MEAN_MOTION_DOT = .83654E-3
MEAN_MOTION_DDOT = 0

CCSDS_OMM_VERS = 2.0
CREATION_DATE  = 
ORIGINATOR     = 

OBJECT_NAME    = STARLINK-36437
OBJECT_ID      = 2026-008W
CENTER_NAME    = EARTH
REF_FRAME      = TEME
TIME_SYSTEM    = UTC
MEAN_ELEMENT_THEORY = SGP/SGP4

EPOCH          = 2026-02-12T05:13:39.777600
MEAN_MOTION    = 15.50647057
ECCENTRICITY   = .00096975
INCLINATION    = 43.0007
RA_OF_ASC_NODE = 349.3350
ARG_OF_PERICENTER = 250.7286
MEAN_ANOMALY   = 109.2525

EPHEMERIS_TYPE = 0
CLASSIFICATION_TYPE = U
NORAD_CAT_ID   = 67465
ELEMENT_SET_NO = 999
REV_AT_EPOCH   = 567
BSTAR          = .16733956E-2
MEAN_MOTION_DOT = .99491E-3
MEAN_MOTION_DDOT = 0

CCSDS_OMM_VERS = 2.0
CREATION_DATE  = 
ORIGINATOR     = 

OBJECT_NAME    = STARLINK-36520
OBJECT_ID      = 2026-008X
CENTER_NAME    = EARTH
REF_FRAME      = TEME
TIME_SYSTEM    = UTC
MEAN_ELEMENT_THEORY = SGP/SGP4

EPOCH          = 2026-02-12T22:00:03.000096
MEAN_MOTION    = 15.38210827
ECCENTRICITY   = .00009732
INCLINATION    = 43.0003
RA_OF_ASC_NODE = 345.5858
ARG_OF_PERICENTER = 260.3842
MEAN_ANOMALY   = 266.4538

EPHEMERIS_TYPE = 0
CLASSIFICATION_TYPE = U
NORAD_CAT_ID   = 67466
ELEMENT_SET_NO = 999
REV_AT_EPOCH   = 581
BSTAR          = -.60797283E-1
MEAN_MOTION_DOT = -.2108425E-1
MEAN_MOTION_DDOT = 0

CCSDS_OMM_VERS = 2.0
CREATION_DATE  = 
ORIGINATOR     = 

OBJECT_NAME    = STARLINK-36425
OBJECT_ID      = 2026-008Y
CENTER_NAME    = EARTH
REF_FRAME      = TEME
TIME_SYSTEM    = UTC
MEAN_ELEMENT_THEORY = SGP/SGP4

EPOCH          = 2026-02-12T21:42:15.111648
MEAN_MOTION    = 15.48664307
ECCENTRICITY   = .00006102
INCLINATION    = 42.9976
RA_OF_ASC_NODE = 345.8968
ARG_OF_PERICENTER = 345.1575
MEAN_ANOMALY   = 14.9266

EPHEMERIS_TYPE = 0
CLASSIFICATION_TYPE = U
NORAD_CAT_ID   = 67467
ELEMENT_SET_NO = 999
REV_AT_EPOCH   = 577
BSTAR          = .19282802E-2
MEAN_MOTION_DOT = .106844E-2
MEAN_MOTION_DDOT = 0

CCSDS_OMM_VERS = 2.0
CREATION_DATE  = 
ORIGINATOR     = 

OBJECT_NAME    = STARLINK-36414
OBJECT_ID      = 2026-008Z
CENTER_NAME    = EARTH
REF_FRAME      = TEME
TIME_SYSTEM    = UTC
MEAN_ELEMENT_THEORY = SGP/SGP4

EPOCH          = 2026-02-11T06:02:53.856672
MEAN_MOTION    = 15.50624812
ECCENTRICITY   = .00016197
INCLINATION    = 43.0000
RA_OF_ASC_NODE = 354.9811
ARG_OF_PERICENTER = 288.2757
MEAN_ANOMALY   = 71.7927

EPHEMERIS_TYPE = 0
CLASSIFICATION_TYPE = U
NORAD_CAT_ID   = 67468
ELEMENT_SET_NO = 999
REV_AT_EPOCH   = 552
BSTAR          = .24892734E-2
MEAN_MOTION_DOT = .148743E-2
MEAN_MOTION_DDOT = 0

