STARLINK-36529          
1 67457U 26008N   26043.91670139 -.02069816  00000+0 -54846-1 0  9997
2 67457  43.0006 345.5044 0000794 271.2832 289.6321 15.41261584  5816
STARLINK-36528          
1 67458U 26008P   26043.91670139 -.02024013  00000+0 -46378-1 0  9999
2 67458  43.0003 345.1202 0001303 252.5923 104.5412 15.45432065  5832
STARLINK-36546          
1 67459U 26008Q   26043.91670139 -.02099609  00000+0 -63678-1 0  9995
2 67459  42.9997 345.5912 0000917 268.6151 256.2777 15.36656009  5819
STARLINK-36523          
1 67460U 26008R   26043.91670139 -.02112903  00000+0 -61756-1 0  9995
2 67460  43.0004 345.5262 0000711 266.8749 284.5518 15.37808399  5836
STARLINK-36522          
1 67461U 26008S   26043.89285842  .00120319  00000+0  20175-2 0  9993
2 67461  42.9998 345.8098 0001712 228.9641 131.1071 15.50688091  5773
STARLINK-36504          
1 67462U 26008T   26043.91670139 -.01994881  00000+0 -56635-1 0  9999
2 67462  42.9994 345.3059 0000854 246.0526  35.0697 15.39056832  5833
STARLINK-36505          
1 67463U 26008U   26043.91670139 -.02030608  00000+0 -47918-1 0  9993
2 67463  43.0000 345.3094 0000910 251.4237  28.6818 15.44595135  5816
STARLINK-36421          
1 67464U 26008V   26043.82784484  .00083654  00000+0  14135-2 0  9994
2 67464  42.9957 346.1823 0000795 287.8134  72.2639 15.50640454  5767
STARLINK-36437          
1 67465U 26008W   26043.21782150  .00099491  00000+0  16734-2 0  9999
2 67465  43.0007 349.3350 0009697 250.7286 109.2525 15.50647057  5674
STARLINK-36520          
1 67466U 26008X   26043.91670139 -.02108425  00000+0 -60797-1 0  9999
2 67466  43.0003 345.5858 0000973 260.3842 266.4538 15.38210827  5818
STARLINK-36425          
1 67467U 26008Y   26043.90434157  .00106844  00000+0  19283-2 0  9991
2 67467  42.9976 345.8968 0000610 345.1575  14.9266 15.48664307  5770
STARLINK-36414          
1 67468U 26008Z   26042.25201223  .00148743  00000+0  24893-2 0  9992
2 67468  43.0000 354.9811 0001619 288.2757  71.7927 15.50624812  5526
